{
  "norad_id": 52302,
  "name": "STARLINK-3564",
  "history": [
    {
      "epoch": "2026-03-28T22:09:41.088672Z",
      "apogee_km": 540.7726055117164,
      "perigee_km": 538.7520254796473,
      "latitude_deg": 4.078266380346287e-05,
      "longitude_deg": -155.98214532760585,
      "height_km": 540.670243695266,
      "semi_major_axis_km": 6917.899315495682,
      "eccentricity": 0.00014604,
      "inclination_deg": 53.2193,
      "raan_deg": 2.7759,
      "arg_perigee_deg": 90.6901,
      "mean_anomaly_deg": 269.4259,
      "mean_motion_rev_day": 15.08833808
    },
    {
      "epoch": "2026-03-29T02:55:50.362752Z",
      "apogee_km": 540.9995245186192,
      "perigee_km": 538.4994003510956,
      "latitude_deg": 4.7519324186431345e-05,
      "longitude_deg": 131.39205186878067,
      "height_km": 541.1544919559382,
      "semi_major_axis_km": 6917.886462434857,
      "eccentricity": 0.0001807,
      "inclination_deg": 53.2211,
      "raan_deg": 1.8846,
      "arg_perigee_deg": 114.0456,
      "mean_anomaly_deg": 246.0726,
      "mean_motion_rev_day": 15.08838013
    },
    {
      "epoch": "2026-03-30T02:46:37.623936Z",
      "apogee_km": 540.9146270745841,
      "perigee_km": 538.5943662666014,
      "latitude_deg": -1.9504586511566505e-05,
      "longitude_deg": 128.25824164964223,
      "height_km": 540.8598438268433,
      "semi_major_axis_km": 6917.8914966705925,
      "eccentricity": 0.0001677,
      "inclination_deg": 53.2213,
      "raan_deg": 357.4271,
      "arg_perigee_deg": 100.4105,
      "mean_anomaly_deg": 259.7076,
      "mean_motion_rev_day": 15.08836366
    }
  ]
}